{"fetched_at":"2026-03-29T16:36:15Z","count":15609,"tles":[{"name":"STARLINK-5269","line1":"1 54161U 22141E   26087.81902036 -.00000838  00000+0 -34562-4 0  9993","line2":"2 54161  53.2179 288.3512 0001391  90.7743 269.3409 15.08833011188605","category":"Starlink"}]}