{
  "norad_id": 54161,
  "name": "STARLINK-5269",
  "history": [
    {
      "epoch": "2026-03-28T19:39:23.359104",
      "apogee_km": 540.7273084732924,
      "perigee_km": 538.8021947738507,
      "latitude_deg": 52.26354926240434,
      "longitude_deg": 34.72595456009731,
      "semi_major_axis_km": 6917.901751623572,
      "eccentricity": 0.00013914,
      "inclination_deg": 53.2179,
      "raan_deg": 288.3512,
      "arg_perigee_deg": 90.7743,
      "mean_anomaly_deg": 269.3409,
      "mean_motion_rev_day": 15.08833011
    }
  ]
}